{
  "type": "FeatureCollection",
  "features": [
    {
      "type": "Feature",
      "properties": {
        "norad_id": 38857,
        "name": "GSAT0103 (GALILEO-FM3)",
        "group": "gnss",
        "lat": 55.12914301153447,
        "lon": -151.64545487825603,
        "alt_km": 23224.69096840415,
        "timestamp": "2025-12-24T05:51:19.851377+00:00",
        "meta_object_name": "GSAT0103 (GALILEO-FM3)",
        "meta_object_id": "2012-055A",
        "meta_epoch": "2025-12-22T21:54:43.252704",
        "meta_mean_motion": 1.70473351,
        "meta_eccentricity": 0.0002995,
        "meta_inclination": 55.698,
        "meta_ra_of_asc_node": 106.3873,
        "meta_arg_of_pericenter": 269.858,
        "meta_mean_anomaly": 90.0891,
        "meta_ephemeris_type": 0,
        "meta_classification_type": "U",
        "meta_norad_cat_id": 38857,
        "meta_element_set_no": 999,
        "meta_rev_at_epoch": 8200,
        "meta_bstar": 0,
        "meta_mean_motion_dot": 1e-07,
        "meta_mean_motion_ddot": 0,
        "tle_line1": "1 38857U 12055A   25356.91300061  .00000010  00000+0  00000+0 0  9994",
        "tle_line2": "2 38857  55.6980 106.3873 0002995 269.8580  90.0891  1.70473351 82005"
      },
      "geometry": {
        "type": "Point",
        "coordinates": [
          -151.64545487825603,
          55.12914301153447
        ]
      }
    },
    {
      "type": "Feature",
      "properties": {
        "norad_id": 38953,
        "name": "BEIDOU-2 G6 (C02)",
        "group": "gnss",
        "lat": -0.6595899874470547,
        "lon": -95.3604317609952,
        "alt_km": 35795.02564236658,
        "timestamp": "2025-12-24T05:51:19.851391+00:00",
        "meta_object_name": "BEIDOU-2 G6 (C02)",
        "meta_object_id": "2012-059A",
        "meta_epoch": "2025-12-23T17:40:08.745312",
        "meta_mean_motion": 1.00268216,
        "meta_eccentricity": 0.00083291,
        "meta_inclination": 3.9754,
        "meta_ra_of_asc_node": 75.3987,
        "meta_arg_of_pericenter": 292.2173,
        "meta_mean_anomaly": 73.8502,
        "meta_ephemeris_type": 0,
        "meta_classification_type": "U",
        "meta_norad_cat_id": 38953,
        "meta_element_set_no": 999,
        "meta_rev_at_epoch": 4815,
        "meta_bstar": 0,
        "meta_mean_motion_dot": -1.54e-06,
        "meta_mean_motion_ddot": 0,
        "tle_line1": "1 38953U 12059A   25357.73621233 -.00000154  00000+0  00000+0 0  9993",
        "tle_line2": "2 38953   3.9754  75.3987 0008329 292.2173  73.8502  1.00268216 48154"
      },
      "geometry": {
        "type": "Point",
        "coordinates": [
          -95.3604317609952,
          -0.6595899874470547
        ]
      }
    },
    {
      "type": "Feature",
      "properties": {
        "norad_id": 38977,
        "name": "LUCH 5B (SDCM/PRN 125)",
        "group": "gnss",
        "lat": 9.317952631379963,
        "lon": 164.77452235582027,
        "alt_km": 35781.6494718683,
        "timestamp": "2025-12-24T05:51:19.851402+00:00",
        "meta_object_name": "LUCH 5B (SDCM/PRN 125)",
        "meta_object_id": "2012-061A",
        "meta_epoch": "2025-12-23T23:19:30.865728",
        "meta_mean_motion": 1.00271916,
        "meta_eccentricity": 0.00066022,
        "meta_inclination": 10.1038,
        "meta_ra_of_asc_node": 51.5975,
        "meta_arg_of_pericenter": 196.0445,
        "meta_mean_anomaly": 178.6636,
        "meta_ephemeris_type": 0,
        "meta_classification_type": "U",
        "meta_norad_cat_id": 38977,
        "meta_element_set_no": 999,
        "meta_rev_at_epoch": 4785,
        "meta_bstar": 0,
        "meta_mean_motion_dot": -1.21e-06,
        "meta_mean_motion_ddot": 0,
        "tle_line1": "1 38977U 12061A   25357.97188502 -.00000121  00000+0  00000+0 0  9999",
        "tle_line2": "2 38977  10.1038  51.5975 0006602 196.0445 178.6636  1.00271916 47852"
      },
      "geometry": {
        "type": "Point",
        "coordinates": [
          164.77452235582027,
          9.317952631379963
        ]
      }
    },
    {
      "type": "Feature",
      "properties": {
        "norad_id": 39155,
        "name": "COSMOS 2485 (747)",
        "group": "gnss",
        "lat": -62.758207499863246,
        "lon": 16.401124814311064,
        "alt_km": 19096.523688626083,
        "timestamp": "2025-12-24T05:51:19.851413+00:00",
        "meta_object_name": "COSMOS 2485 (747)",
        "meta_object_id": "2013-019A",
        "meta_epoch": "2025-12-22T22:30:40.320288",
        "meta_mean_motion": 2.13103234,
        "meta_eccentricity": 0.00250055,
        "meta_inclination": 65.3186,
        "meta_ra_of_asc_node": 79.5244,
        "meta_arg_of_pericenter": 230.4541,
        "meta_mean_anomaly": 129.3696,
        "meta_ephemeris_type": 0,
        "meta_classification_type": "U",
        "meta_norad_cat_id": 39155,
        "meta_element_set_no": 999,
        "meta_rev_at_epoch": 9852,
        "meta_bstar": 0,
        "meta_mean_motion_dot": 0,
        "meta_mean_motion_ddot": 0,
        "tle_line1": "1 39155U 13019A   25356.93796667  .00000000  00000+0  00000+0 0  9999",
        "tle_line2": "2 39155  65.3186  79.5244 0025005 230.4541 129.3696  2.13103234 98525"
      },
      "geometry": {
        "type": "Point",
        "coordinates": [
          16.401124814311064,
          -62.758207499863246
        ]
      }
    },
    {
      "type": "Feature",
      "properties": {
        "norad_id": 39166,
        "name": "GPS BIIF-4  (PRN 27)",
        "group": "gnss",
        "lat": 35.593014911089135,
        "lon": -53.407152283710396,
        "alt_km": 19810.62066780829,
        "timestamp": "2025-12-24T05:51:19.851425+00:00",
        "meta_object_name": "GPS BIIF-4  (PRN 27)",
        "meta_object_id": "2013-023A",
        "meta_epoch": "2025-12-23T04:26:51.199584",
        "meta_mean_motion": 2.00564619,
        "meta_eccentricity": 0.013854,
        "meta_inclination": 54.643,
        "meta_ra_of_asc_node": 276.1436,
        "meta_arg_of_pericenter": 48.7451,
        "meta_mean_anomaly": 312.486,
        "meta_ephemeris_type": 0,
        "meta_classification_type": "U",
        "meta_norad_cat_id": 39166,
        "meta_element_set_no": 999,
        "meta_rev_at_epoch": 9235,
        "meta_bstar": 0,
        "meta_mean_motion_dot": -1.4e-07,
        "meta_mean_motion_ddot": 0,
        "tle_line1": "1 39166U 13023A   25357.18531481 -.00000014  00000+0  00000+0 0  9991",
        "tle_line2": "2 39166  54.6430 276.1436 0138540  48.7451 312.4860  2.00564619 92354"
      },
      "geometry": {
        "type": "Point",
        "coordinates": [
          -53.407152283710396,
          35.593014911089135
        ]
      }
    },
    {
      "type": "Feature",
      "properties": {
        "norad_id": 39199,
        "name": "IRNSS-1A",
        "group": "gnss",
        "lat": 6.307661556186658,
        "lon": -122.54666233429909,
        "alt_km": 35713.00367633476,
        "timestamp": "2025-12-24T05:51:19.851436+00:00",
        "meta_object_name": "IRNSS-1A",
        "meta_object_id": "2013-034A",
        "meta_epoch": "2025-12-23T18:31:50.766240",
        "meta_mean_motion": 1.00273261,
        "meta_eccentricity": 0.00244469,
        "meta_inclination": 35.3346,
        "meta_ra_of_asc_node": 66.3922,
        "meta_arg_of_pericenter": 214.961,
        "meta_mean_anomaly": 143.9705,
        "meta_ephemeris_type": 0,
        "meta_classification_type": "U",
        "meta_norad_cat_id": 39199,
        "meta_element_set_no": 999,
        "meta_rev_at_epoch": 4560,
        "meta_bstar": 0,
        "meta_mean_motion_dot": 7.8e-07,
        "meta_mean_motion_ddot": 0,
        "tle_line1": "1 39199U 13034A   25357.77211535  .00000078  00000+0  00000+0 0  9998",
        "tle_line2": "2 39199  35.3346  66.3922 0024446 214.9610 143.9705  1.00273261 45604"
      },
      "geometry": {
        "type": "Point",
        "coordinates": [
          -122.54666233429909,
          6.307661556186658
        ]
      }
    },
    {
      "type": "Feature",
      "properties": {
        "norad_id": 39533,
        "name": "GPS BIIF-5  (PRN 30)",
        "group": "gnss",
        "lat": 36.6820946956094,
        "lon": -170.22204878258873,
        "alt_km": 20390.140085598363,
        "timestamp": "2025-12-24T05:51:19.851447+00:00",
        "meta_object_name": "GPS BIIF-5  (PRN 30)",
        "meta_object_id": "2014-008A",
        "meta_epoch": "2025-12-20T16:28:24.690432",
        "meta_mean_motion": 2.00548724,
        "meta_eccentricity": 0.00795742,
        "meta_inclination": 53.6246,
        "meta_ra_of_asc_node": 156.6308,
        "meta_arg_of_pericenter": 226.1122,
        "meta_mean_anomaly": 133.2164,
        "meta_ephemeris_type": 0,
        "meta_classification_type": "U",
        "meta_norad_cat_id": 39533,
        "meta_element_set_no": 999,
        "meta_rev_at_epoch": 8610,
        "meta_bstar": 0,
        "meta_mean_motion_dot": 6.5e-07,
        "meta_mean_motion_ddot": 0,
        "tle_line1": "1 39533U 14008A   25354.68639688  .00000065  00000+0  00000+0 0  9998",
        "tle_line2": "2 39533  53.6246 156.6308 0079574 226.1122 133.2164  2.00548724 86105"
      },
      "geometry": {
        "type": "Point",
        "coordinates": [
          -170.22204878258873,
          36.6820946956094
        ]
      }
    }
  ]
}